EUTELSAT QUANTUM        
1 49056U 21069B   26168.83493743  .00000121  00000+0  00000+0 0  9998
2 49056   0.0126  13.4364 0002057  69.9245 170.9934  1.00271815 17933
ZHONGXING-2E            
1 49062U 21071A   26168.84496404 -.00000296  00000+0  00000+0 0  9990
2 49062   0.0403 201.3989 0001789 290.2286 176.7102  1.00269476 18048
TJS-7                   
1 49115U 21077A   26166.28660921 -.00000120  00000+0  00000+0 0  9994
2 49115   0.5030  86.1055 0001963 333.0157 208.1393  1.00269621  9536
CHINASAT 9B             
1 49125U 21080A   26168.06155743 -.00000316  00000+0  00000+0 0  9995
2 49125   0.0519  89.7278 0001437  24.6860 274.4700  1.00268711 17648
SHIJIAN-21 (SJ-21)      
1 49330U 21094A   26168.80656200 -.00000355  00000+0  00000+0 0  9997
2 49330   5.1152  61.1805 0049761 168.3035  94.9725  1.00270344  5360
SES-17                  
1 49332U 21095A   26168.48655742 -.00000276  00000+0  00000+0 0  9996
2 49332   0.0248  36.2983 0000400 249.7550  87.7302  1.00249110 17850
SYRACUSE 4A             
1 49333U 21095B   26168.83822787  .00000128  00000+0  00000+0 0  9996
2 49333   0.0169   7.8730 0001698  53.9335 191.5584  1.00287907 17956
QZS-1R (MICHIBIKI-1R)   
1 49336U 21096A   26167.63839491 -.00000283  00000+0  00000+0 0  9990
2 49336  37.4612  79.5914 0754866 271.7927 277.3771  1.00255427 17004
ZHONGXING-1D            
1 49505U 21114A   26168.85129073 -.00000342  00000+0  00000+0 0  9998
2 49505   0.0315 219.6997 0000737   4.5599 118.4715  1.00268401 16822
STPSAT-6                
1 49817U 21118A   26168.58956145 -.00000051  00000+0  00000+0 0  9993
2 49817   0.3227  85.3586 0001498 248.0965  32.9927  1.00273219 16572
EXPRESS AMU-7           
1 50001U 21123A   26168.51850487 -.00000247  00000+0  00000+0 0  9998
2 50001   0.0189 288.5029 0000551  30.1031 278.8227  1.00272579 16544
EXPRESS AMU-3           
1 50002U 21123B   26166.98015212  .00000000  00000+0  00000+0 0  9993
2 50002   0.0243 318.5963 0000207  46.0624 355.3415  1.00269721  7016
TIANLIAN 2-02           
1 50005U 21124A   26168.41989110 -.00000019  00000+0  00000+0 0  9995
2 50005   0.8021  86.0981 0001419 194.7412 306.9587  1.00270916 16627
TURKSAT 5B              
1 50212U 21126A   26168.12092939  .00000142  00000+0  00000+0 0  9995
2 50212   0.0689 339.5224 0003330  14.5676 356.8204  1.00269373 16298
INMARSAT 6-F1           
1 50319U 21128A   26168.82499145 -.00000177  00000+0  00000+0 0  9991
2 50319   0.0178 324.3736 0000201 317.7302   4.7255  1.00270216 16267
SHIYAN-12 01 (SY-12 01) 
1 50321U 21129A   26168.80373469  .00000079  00000+0  00000+0 0  9993
2 50321   3.6768  79.9013 0003248 285.9957 249.0802  1.00039709 16500
SHIYAN-12 02 (SY-12 02) 
1 50322U 21129B   26168.77196078 -.00000271  00000+0  00000+0 0  9994
2 50322   3.6763  79.9071 0002693  60.0968 133.2903  1.00489217 16506
TJS-9                   
1 50574U 21135A   26167.85459801 -.00000302  00000+0  00000+0 0  9999
2 50574   0.0419 242.6796 0004172 167.9401 299.3046  1.00267592 16423
USA 324                 
1 51280U 22006A   26157.08795008 -.00000058  00000+0  00000+0 0  9996
2 51280   0.7690  83.2777 0002840 165.6787 110.1567  1.00289779 16021
GOES 18                 
1 51850U 22021A   26168.79813424  .00000091  00000+0  00000+0 0  9995
2 51850   0.0198 176.3163 0000321 336.8447 263.2028  1.00270613  6590
ZHONGXING-6D            
1 52255U 22038A   26167.91632530  .00000000  00000+0  00000+0 0  9993
2 52255   0.0173 303.0992 0000599 145.4713 271.4363  1.00270040 15428
NILESAT 301             
1 52817U 22061A   26168.82419073 -.00000063  00000+0  00000+0 0  9999
2 52817   0.0482  12.9233 0004620  42.8806 139.9755  1.00270674 14741
CMS-02 (GSAT-24)        
1 52903U 22067A   26168.84193067 -.00000170  00000+0  00000+0 0  9994
2 52903   0.0556 256.5128 0001861 106.9816 288.6971  1.00272009 14617
MEASAT 3D               
1 52904U 22067B   26168.85649950 -.00000247  00000+0  00000+0 0  9998
2 52904   0.0284 340.3163 0001388  31.3358 294.2891  1.00272034 14659
SES-22                  
1 52933U 22071A   26168.72671690  .00000099  00000+0  00000+0 0  9991
2 52933   0.0148 344.6696 0001283  88.3613 315.5440  1.00271337  7528
WFOV (USA 332)          
1 52940U 22073A   26168.83705801 -.00000369  00000+0  00000+0 0  9996
2 52940   3.7132  78.5198 0002107 252.8086 355.3377  1.00274730 14379
TIANLIAN 2-03           
1 53100U 22078A   26168.82765742  .00000066  00000+0  00000+0 0  9992
2 53100   0.6728  77.0529 0001435 330.7331 166.8290  1.00271073 14555
SBIRS GEO-6 (USA 336)   
1 53355U 22092A   26168.85302406 -.00000296  00000+0  00000+0 0  9993
2 53355   3.2562 317.5153 0001739 120.0895 274.5898  1.00270987 14249
EUTELSAT KONNECT VHTS   
1 53765U 22110A   26168.82609741  .00000012  00000+0  00000+0 0  9993
2 53765   0.0646 100.4970 0002281 342.1402 123.5208  1.00272031  6849
ZHONGXING-1E            
1 53813U 22112A   26168.84167068 -.00000155  00000+0  00000+0 0  9991
2 53813   0.0455 202.6835 0000779 112.3229 335.4876  1.00272210 13853
SES-20                  
1 53960U 22123A   26168.66252090 -.00000106  00000+0  00000+0 0  9992
2 53960   0.0296  66.7060 0001754   8.6021 326.0080  1.00268045 13538
SES-21                  
1 53961U 22123B   26168.72827690  .00000000  00000+0  00000+0 0  9996
2 53961   0.0386  16.6095 0000946  65.4364 315.1915  1.00268886  7211
