OBJECT_NAME,OBJECT_ID,EPOCH,MEAN_MOTION,ECCENTRICITY,INCLINATION,RA_OF_ASC_NODE,ARG_OF_PERICENTER,MEAN_ANOMALY,EPHEMERIS_TYPE,CLASSIFICATION_TYPE,NORAD_CAT_ID,ELEMENT_SET_NO,REV_AT_EPOCH,BSTAR,MEAN_MOTION_DOT,MEAN_MOTION_DDOT
EUTELSAT QUANTUM,2021-069B,2026-06-17T20:02:18.593952,1.00271815,.0002057,0.0126,13.4364,69.9245,170.9934,0,U,49056,999,1793,0,.121E-5,0
ZHONGXING-2E,2021-071A,2026-06-17T20:16:44.893056,1.00269476,.0001789,0.0403,201.3989,290.2286,176.7102,0,U,49062,999,1804,0,-.296E-5,0
TJS-7,2021-077A,2026-06-15T06:52:43.035744,1.00269621,.0001963,0.5030,86.1055,333.0157,208.1393,0,U,49115,999,953,0,-.12E-5,0
CHINASAT 9B,2021-080A,2026-06-17T01:28:38.561952,1.00268711,.0001437,0.0519,89.7278,24.6860,274.4700,0,U,49125,999,1764,0,-.316E-5,0
SHIJIAN-21 (SJ-21),2021-094A,2026-06-17T19:21:26.956800,1.00270344,.0049761,5.1152,61.1805,168.3035,94.9725,0,U,49330,999,536,0,-.355E-5,0
SES-17,2021-095A,2026-06-17T11:40:38.561088,1.00249110,.00004,0.0248,36.2983,249.7550,87.7302,0,U,49332,999,1785,0,-.276E-5,0
SYRACUSE 4A,2021-095B,2026-06-17T20:07:02.887968,1.00287907,.0001698,0.0169,7.8730,53.9335,191.5584,0,U,49333,999,1795,0,.128E-5,0
QZS-1R (MICHIBIKI-1R),2021-096A,2026-06-16T15:19:17.320224,1.00255427,.07548668,37.4612,79.5914,271.7927,277.3771,0,U,49336,999,1700,0,-.283E-5,0
ZHONGXING-1D,2021-114A,2026-06-17T20:25:51.519072,1.00268401,.0000737,0.0315,219.6997,4.5599,118.4715,0,U,49505,999,1682,0,-.342E-5,0
STPSAT-6,2021-118A,2026-06-17T14:08:58.109280,1.00273219,.0001498,0.3227,85.3586,248.0965,32.9927,0,U,49817,999,1657,0,-.51E-6,0
EXPRESS AMU-7,2021-123A,2026-06-17T12:26:38.820768,1.00272579,.0000551,0.0189,288.5029,30.1031,278.8227,0,U,50001,999,1654,0,-.247E-5,0
EXPRESS AMU-3,2021-123B,2026-06-15T23:31:25.143168,1.00269721,.00002071,0.0243,318.5963,46.0624,355.3415,0,U,50002,999,701,0,0,0
TIANLIAN 2-02,2021-124A,2026-06-17T10:04:38.591040,1.00270916,.0001419,0.8021,86.0981,194.7412,306.9587,0,U,50005,999,1662,0,-.19E-6,0
TURKSAT 5B,2021-126A,2026-06-17T02:54:08.299296,1.00269373,.000333,0.0689,339.5224,14.5676,356.8204,0,U,50212,999,1629,0,.142E-5,0
INMARSAT 6-F1,2021-128A,2026-06-17T19:47:59.261280,1.00270216,.0000201,0.0178,324.3736,317.7302,4.7255,0,U,50319,999,1626,0,-.177E-5,0
SHIYAN-12 01 (SY-12 01),2021-129A,2026-06-17T19:17:22.677216,1.00039709,.0003248,3.6768,79.9013,285.9957,249.0802,0,U,50321,999,1650,0,.79E-6,0
SHIYAN-12 02 (SY-12 02),2021-129B,2026-06-17T18:31:37.411392,1.00489217,.0002693,3.6763,79.9071,60.0968,133.2903,0,U,50322,999,1650,0,-.271E-5,0
TJS-9,2021-135A,2026-06-16T20:30:37.268064,1.00267592,.0004172,0.0419,242.6796,167.9401,299.3046,0,U,50574,999,1642,0,-.302E-5,0
USA 324,2022-006A,2026-06-06T02:06:38.886912,1.00289779,.000284,0.7690,83.2777,165.6787,110.1567,0,U,51280,999,1602,0,-.58E-6,0
GOES 18,2022-021A,2026-06-17T19:09:18.798336,1.00270613,.0000321,0.0198,176.3163,336.8447,263.2028,0,U,51850,999,659,0,.91E-6,0
ZHONGXING-6D,2022-038A,2026-06-16T21:59:30.505920,1.00270040,.0000599,0.0173,303.0992,145.4713,271.4363,0,U,52255,999,1542,0,0,0
NILESAT 301,2022-061A,2026-06-17T19:46:50.079072,1.00270674,.000462,0.0482,12.9233,42.8806,139.9755,0,U,52817,999,1474,0,-.63E-6,0
CMS-02 (GSAT-24),2022-067A,2026-06-17T20:12:22.809888,1.00272009,.0001861,0.0556,256.5128,106.9816,288.6971,0,U,52903,999,1461,0,-.17E-5,0
MEASAT 3D,2022-067B,2026-06-17T20:33:21.556800,1.00272034,.0001388,0.0284,340.3163,31.3358,294.2891,0,U,52904,999,1465,0,-.247E-5,0
SES-22,2022-071A,2026-06-17T17:26:28.340160,1.00271337,.0001283,0.0148,344.6696,88.3613,315.5440,0,U,52933,999,752,0,.99E-6,0
WFOV (USA 332),2022-073A,2026-06-17T20:05:21.812064,1.00274730,.0002107,3.7132,78.5198,252.8086,355.3377,0,U,52940,999,1437,0,-.369E-5,0
TIANLIAN 2-03,2022-078A,2026-06-17T19:51:49.601088,1.00271073,.0001435,0.6728,77.0529,330.7331,166.8290,0,U,53100,999,1455,0,.66E-6,0
SBIRS GEO-6 (USA 336),2022-092A,2026-06-17T20:28:21.278784,1.00270987,.0001739,3.2562,317.5153,120.0895,274.5898,0,U,53355,999,1424,0,-.296E-5,0
EUTELSAT KONNECT VHTS,2022-110A,2026-06-17T19:49:34.816224,1.00272031,.0002281,0.0646,100.4970,342.1402,123.5208,0,U,53765,999,684,0,.12E-6,0
ZHONGXING-1E,2022-112A,2026-06-17T20:12:00.346752,1.00272210,.0000779,0.0455,202.6835,112.3229,335.4876,0,U,53813,999,1385,0,-.155E-5,0
SES-20,2022-123A,2026-06-17T15:54:01.805760,1.00268045,.0001754,0.0296,66.7060,8.6021,326.0080,0,U,53960,999,1353,0,-.106E-5,0
SES-21,2022-123B,2026-06-17T17:28:43.124160,1.00268886,.0000946,0.0386,16.6095,65.4364,315.1915,0,U,53961,999,721,0,0,0
